{"fetched_at":"2026-07-23T17:55:10.094Z","source":"https://celestrak.org/NORAD/elements/gp.php?GROUP=planet&FORMAT=JSON","constellation":"pelican","records":[{"OBJECT_NAME":"PELICAN-1","OBJECT_ID":"2023-174AS","EPOCH":"2026-07-23T04:53:54.740256","CLASSIFICATION_TYPE":"U","MEAN_MOTION":15.72167761,"ECCENTRICITY":0.00046711,"INCLINATION":97.3969,"RA_OF_ASC_NODE":306.7694,"ARG_OF_PERICENTER":184.692,"MEAN_ANOMALY":175.4301,"EPHEMERIS_TYPE":0,"NORAD_CAT_ID":58296,"ELEMENT_SET_NO":999,"REV_AT_EPOCH":15182,"BSTAR":0.000080169065,"MEAN_MOTION_DOT":0.00010402,"MEAN_MOTION_DDOT":0},{"OBJECT_NAME":"PELICAN-2","OBJECT_ID":"2025-009Y","EPOCH":"2026-07-22T05:57:43.683264","CLASSIFICATION_TYPE":"U","MEAN_MOTION":15.40685259,"ECCENTRICITY":0.00012743,"INCLINATION":97.2019,"RA_OF_ASC_NODE":293.6933,"ARG_OF_PERICENTER":36.2458,"MEAN_ANOMALY":323.8875,"EPHEMERIS_TYPE":0,"NORAD_CAT_ID":62631,"ELEMENT_SET_NO":999,"REV_AT_EPOCH":8495,"BSTAR":0.000002129241,"MEAN_MOTION_DOT":7e-8,"MEAN_MOTION_DDOT":0},{"OBJECT_NAME":"PELICAN-3","OBJECT_ID":"2025-188A","EPOCH":"2026-07-22T04:15:23.681952","CLASSIFICATION_TYPE":"U","MEAN_MOTION":15.41357187,"ECCENTRICITY":0.00021701,"INCLINATION":97.1975,"RA_OF_ASC_NODE":278.8136,"ARG_OF_PERICENTER":112.7428,"MEAN_ANOMALY":247.4049,"EPHEMERIS_TYPE":0,"NORAD_CAT_ID":65315,"ELEMENT_SET_NO":999,"REV_AT_EPOCH":5070,"BSTAR":0.00021399759,"MEAN_MOTION_DOT":0.00008847,"MEAN_MOTION_DDOT":0},{"OBJECT_NAME":"PELICAN-4","OBJECT_ID":"2025-188B","EPOCH":"2026-07-23T04:12:30.570912","CLASSIFICATION_TYPE":"U","MEAN_MOTION":15.40360908,"ECCENTRICITY":0.00017775,"INCLINATION":97.2002,"RA_OF_ASC_NODE":279.9403,"ARG_OF_PERICENTER":88.3439,"MEAN_ANOMALY":271.8012,"EPHEMERIS_TYPE":0,"NORAD_CAT_ID":65316,"ELEMENT_SET_NO":999,"REV_AT_EPOCH":5085,"BSTAR":0.000009652448,"MEAN_MOTION_DOT":0.0000031,"MEAN_MOTION_DDOT":0},{"OBJECT_NAME":"PELICAN-5","OBJECT_ID":"2025-276B","EPOCH":"2026-07-23T04:53:11.661216","CLASSIFICATION_TYPE":"U","MEAN_MOTION":15.3340645,"ECCENTRICITY":0.00031567,"INCLINATION":97.4114,"RA_OF_ASC_NODE":279.1909,"ARG_OF_PERICENTER":56.5105,"MEAN_ANOMALY":303.6439,"EPHEMERIS_TYPE":0,"NORAD_CAT_ID":66667,"ELEMENT_SET_NO":999,"REV_AT_EPOCH":3603,"BSTAR":0.00060338788,"MEAN_MOTION_DOT":0.00019432,"MEAN_MOTION_DDOT":0},{"OBJECT_NAME":"PELICAN-6","OBJECT_ID":"2025-276AP","EPOCH":"2026-07-23T03:29:03.069024","CLASSIFICATION_TYPE":"U","MEAN_MOTION":15.31775194,"ECCENTRICITY":0.00021112,"INCLINATION":97.3683,"RA_OF_ASC_NODE":279.0796,"ARG_OF_PERICENTER":33.2248,"MEAN_ANOMALY":326.9126,"EPHEMERIS_TYPE":0,"NORAD_CAT_ID":66703,"ELEMENT_SET_NO":999,"REV_AT_EPOCH":3603,"BSTAR":0.00016295382,"MEAN_MOTION_DOT":0.00004921,"MEAN_MOTION_DDOT":0},{"OBJECT_NAME":"PELICAN-7","OBJECT_ID":"2026-100AP","EPOCH":"2026-07-23T01:47:31.153632","CLASSIFICATION_TYPE":"U","MEAN_MOTION":15.23865128,"ECCENTRICITY":0.00032426,"INCLINATION":97.3806,"RA_OF_ASC_NODE":101.3982,"ARG_OF_PERICENTER":75.9221,"MEAN_ANOMALY":284.2377,"EPHEMERIS_TYPE":0,"NORAD_CAT_ID":69017,"ELEMENT_SET_NO":999,"REV_AT_EPOCH":1227,"BSTAR":0.00016509743,"MEAN_MOTION_DOT":0.00003912,"MEAN_MOTION_DDOT":0},{"OBJECT_NAME":"PELICAN-9","OBJECT_ID":"2026-100AR","EPOCH":"2026-07-22T06:25:34.414752","CLASSIFICATION_TYPE":"U","MEAN_MOTION":15.23191471,"ECCENTRICITY":0.00024991,"INCLINATION":97.3622,"RA_OF_ASC_NODE":100.3962,"ARG_OF_PERICENTER":139.6165,"MEAN_ANOMALY":220.5258,"EPHEMERIS_TYPE":0,"NORAD_CAT_ID":69019,"ELEMENT_SET_NO":999,"REV_AT_EPOCH":1214,"BSTAR":0.000076832357,"MEAN_MOTION_DOT":0.00001747,"MEAN_MOTION_DDOT":0}]}
