PELICAN-1               
1 58296U 23174AS  26204.20410579  .00010402  00000+0  80169-4 0  9993
2 58296  97.3969 306.7694 0004671 184.6920 175.4301 15.72167761151829
PELICAN-2               
1 62631U 25009Y   26203.24842226  .00000007  00000+0  21292-5 0  9994
2 62631  97.2019 293.6933 0001274  36.2458 323.8875 15.40685259 84952
PELICAN-3               
1 65315U 25188A   26203.17735743  .00008847  00000+0  21400-3 0  9990
2 65315  97.1975 278.8136 0002170 112.7428 247.4049 15.41357187 50704
PELICAN-4               
1 65316U 25188B   26204.17535383  .00000310  00000+0  96524-5 0  9998
2 65316  97.2002 279.9403 0001777  88.3439 271.8012 15.40360908 50859
PELICAN-5               
1 66667U 25276B   26204.20360719  .00019432  00000+0  60339-3 0  9997
2 66667  97.4114 279.1909 0003156  56.5105 303.6439 15.33406450 36034
PELICAN-6               
1 66703U 25276AP  26204.14517441  .00004921  00000+0  16295-3 0  9996
2 66703  97.3683 279.0796 0002111  33.2248 326.9126 15.31775194 36031
PELICAN-7               
1 69017U 26100AP  26204.07466613  .00003912  00000+0  16510-3 0  9999
2 69017  97.3806 101.3982 0003242  75.9221 284.2377 15.23865128 12275
PELICAN-9               
1 69019U 26100AR  26203.26775943  .00001747  00000+0  76832-4 0  9998
2 69019  97.3622 100.3962 0002499 139.6165 220.5258 15.23191471 12148
